[{"OBJECT_NAME":"ONEWEB-0570","OBJECT_ID":"2023-004K","EPOCH":"2025-12-08T03:30:46.191744","MEAN_MOTION":13.18688336,"ECCENTRICITY":0.00012921,"INCLINATION":87.917,"RA_OF_ASC_NODE":13.4289,"ARG_OF_PERICENTER":102.8231,"MEAN_ANOMALY":257.3045,"EPHEMERIS_TYPE":0,"CLASSIFICATION_TYPE":"U","NORAD_CAT_ID":55149,"ELEMENT_SET_NO":999,"REV_AT_EPOCH":14451,"BSTAR":0.00012971525,"MEAN_MOTION_DOT":6.4e-7,"MEAN_MOTION_DDOT":0},{"OBJECT_NAME":"ONEWEB-0571","OBJECT_ID":"2023-004L","EPOCH":"2025-12-08T03:21:16.320672","MEAN_MOTION":13.18688438,"ECCENTRICITY":0.00015111,"INCLINATION":87.9167,"RA_OF_ASC_NODE":13.4298,"ARG_OF_PERICENTER":51.4866,"MEAN_ANOMALY":308.6401,"EPHEMERIS_TYPE":0,"CLASSIFICATION_TYPE":"U","NORAD_CAT_ID":55150,"ELEMENT_SET_NO":999,"REV_AT_EPOCH":14452,"BSTAR":0.00015396134,"MEAN_MOTION_DOT":7.4e-7,"MEAN_MOTION_DDOT":0},{"OBJECT_NAME":"ONEWEB-0572","OBJECT_ID":"2023-004M","EPOCH":"2025-12-08T05:40:01.193088","MEAN_MOTION":13.176497,"ECCENTRICITY":0.0001564,"INCLINATION":87.912,"RA_OF_ASC_NODE":43.8385,"ARG_OF_PERICENTER":96.2773,"MEAN_ANOMALY":263.8537,"EPHEMERIS_TYPE":0,"CLASSIFICATION_TYPE":"U","NORAD_CAT_ID":55151,"ELEMENT_SET_NO":999,"REV_AT_EPOCH":14233,"BSTAR":0.00026604563,"MEAN_MOTION_DOT":1.16e-6,"MEAN_MOTION_DDOT":0},{"OBJECT_NAME":"ONEWEB-0573","OBJECT_ID":"2023-004N","EPOCH":"2025-12-08T03:11:45.780864","MEAN_MOTION":13.18694879,"ECCENTRICITY":0.00011514,"INCLINATION":87.916,"RA_OF_ASC_NODE":13.4367,"ARG_OF_PERICENTER":79.5631,"MEAN_ANOMALY":280.5631,"EPHEMERIS_TYPE":0,"CLASSIFICATION_TYPE":"U","NORAD_CAT_ID":55152,"ELEMENT_SET_NO":999,"REV_AT_EPOCH":14451,"BSTAR":0.0025454312,"MEAN_MOTION_DOT":1.017e-5,"MEAN_MOTION_DDOT":0},{"OBJECT_NAME":"ONEWEB-0588","OBJECT_ID":"2023-004P","EPOCH":"2025-12-08T03:02:17.529792","MEAN_MOTION":13.1868617,"ECCENTRICITY":0.00013413,"INCLINATION":87.9174,"RA_OF_ASC_NODE":13.4325,"ARG_OF_PERICENTER":96.402,"MEAN_ANOMALY":263.7265,"EPHEMERIS_TYPE":0,"CLASSIFICATION_TYPE":"U","NORAD_CAT_ID":55153,"ELEMENT_SET_NO":999,"REV_AT_EPOCH":14451,"BSTAR":0.00019745651,"MEAN_MOTION_DOT":9.1e-7,"MEAN_MOTION_DDOT":0},{"OBJECT_NAME":"ONEWEB-0598","OBJECT_ID":"2023-004Q","EPOCH":"2025-12-08T06:22:38.836992","MEAN_MOTION":13.11420955,"ECCENTRICITY":0.00016028,"INCLINATION":87.8857,"RA_OF_ASC_NODE":59.095,"ARG_OF_PERICENTER":81.187,"MEAN_ANOMALY":278.944,"EPHEMERIS_TYPE":0,"CLASSIFICATION_TYPE":"U","NORAD_CAT_ID":55154,"ELEMENT_SET_NO":999,"REV_AT_EPOCH":14087,"BSTAR":0.00015238812,"MEAN_MOTION_DOT":6.7e-7,"MEAN_MOTION_DDOT":0},{"OBJECT_NAME":"ONEWEB-0599","OBJECT_ID":"2023-004R","EPOCH":"2025-12-08T04:44:07.603008","MEAN_MOTION":13.17649812,"ECCENTRICITY":0.00018504,"INCLINATION":87.911,"RA_OF_ASC_NODE":43.8477,"ARG_OF_PERICENTER":94.2055,"MEAN_ANOMALY":265.9288,"EPHEMERIS_TYPE":0,"CLASSIFICATION_TYPE":"U","NORAD_CAT_ID":55155,"ELEMENT_SET_NO":999,"REV_AT_EPOCH":14233,"BSTAR":0.00017356372,"MEAN_MOTION_DOT":8.0e-7,"MEAN_MOTION_DDOT":0},{"OBJECT_NAME":"ONEWEB-0614","OBJECT_ID":"2023-004S","EPOCH":"2025-12-08T06:15:19.743552","MEAN_MOTION":13.11420215,"ECCENTRICITY":0.00015217,"INCLINATION":87.8857,"RA_OF_ASC_NODE":59.1054,"ARG_OF_PERICENTER":114.8763,"MEAN_ANOMALY":245.2524,"EPHEMERIS_TYPE":0,"CLASSIFICATION_TYPE":"U","NORAD_CAT_ID":55156,"ELEMENT_SET_NO":999,"REV_AT_EPOCH":14081,"BSTAR":-0.00055748122,"MEAN_MOTION_DOT":-1.85e-6,"MEAN_MOTION_DDOT":0},{"OBJECT_NAME":"ONEWEB-0616","OBJECT_ID":"2023-004T","EPOCH":"2025-12-08T05:44:52.420704","MEAN_MOTION":13.17649958,"ECCENTRICITY":0.00026838,"INCLINATION":87.9122,"RA_OF_ASC_NODE":43.8308,"ARG_OF_PERICENTER":92.589,"MEAN_ANOMALY":267.5549,"EPHEMERIS_TYPE":0,"CLASSIFICATION_TYPE":"U","NORAD_CAT_ID":55157,"ELEMENT_SET_NO":999,"REV_AT_EPOCH":14255,"BSTAR":0.00026219504,"MEAN_MOTION_DOT":1.15e-6,"MEAN_MOTION_DDOT":0},{"OBJECT_NAME":"ONEWEB-0617","OBJECT_ID":"2023-004U","EPOCH":"2025-12-08T05:58:13.773792","MEAN_MOTION":13.11416717,"ECCENTRICITY":0.00013293,"INCLINATION":87.8858,"RA_OF_ASC_NODE":59.0872,"ARG_OF_PERICENTER":109.6442,"MEAN_ANOMALY":250.4829,"EPHEMERIS_TYPE":0,"CLASSIFICATION_TYPE":"U","NORAD_CAT_ID":55158,"ELEMENT_SET_NO":999,"REV_AT_EPOCH":14083,"BSTAR":-0.0019740256,"MEAN_MOTION_DOT":-6.87e-6,"MEAN_MOTION_DDOT":0},{"OBJECT_NAME":"ONEWEB-0618","OBJECT_ID":"2023-004V","EPOCH":"2025-12-08T06:10:49.370304","MEAN_MOTION":15.10576546,"ECCENTRICITY":0.00105779,"INCLINATION":86.9081,"RA_OF_ASC_NODE":255.0471,"ARG_OF_PERICENTER":288.3165,"MEAN_ANOMALY":71.6922,"EPHEMERIS_TYPE":0,"CLASSIFICATION_TYPE":"U","NORAD_CAT_ID":55159,"ELEMENT_SET_NO":999,"REV_AT_EPOCH":15341,"BSTAR":0.00065190147,"MEAN_MOTION_DOT":0.00010804,"MEAN_MOTION_DDOT":0},{"OBJECT_NAME":"ONEWEB-0619","OBJECT_ID":"2023-004W","EPOCH":"2025-12-08T04:41:42.125280","MEAN_MOTION":13.17649942,"ECCENTRICITY":0.00020803,"INCLINATION":87.9122,"RA_OF_ASC_NODE":43.8136,"ARG_OF_PERICENTER":111.4347,"MEAN_ANOMALY":248.7007,"EPHEMERIS_TYPE":0,"CLASSIFICATION_TYPE":"U","NORAD_CAT_ID":55160,"ELEMENT_SET_NO":999,"REV_AT_EPOCH":14244,"BSTAR":0.00017851178,"MEAN_MOTION_DOT":8.2e-7,"MEAN_MOTION_DDOT":0},{"OBJECT_NAME":"ONEWEB-0620","OBJECT_ID":"2023-004X","EPOCH":"2025-12-08T05:50:55.640256","MEAN_MOTION":13.11407341,"ECCENTRICITY":0.00014301,"INCLINATION":87.8856,"RA_OF_ASC_NODE":59.108,"ARG_OF_PERICENTER":99.2052,"MEAN_ANOMALY":260.9238,"EPHEMERIS_TYPE":0,"CLASSIFICATION_TYPE":"U","NORAD_CAT_ID":55161,"ELEMENT_SET_NO":999,"REV_AT_EPOCH":14080,"BSTAR":-0.0043749294,"MEAN_MOTION_DOT":-1.537e-5,"MEAN_MOTION_DDOT":0},{"OBJECT_NAME":"ONEWEB-0621","OBJECT_ID":"2023-004Y","EPOCH":"2025-12-08T06:29:58.206912","MEAN_MOTION":13.11421306,"ECCENTRICITY":0.00017158,"INCLINATION":87.8868,"RA_OF_ASC_NODE":59.0723,"ARG_OF_PERICENTER":110.6529,"MEAN_ANOMALY":249.4783,"EPHEMERIS_TYPE":0,"CLASSIFICATION_TYPE":"U","NORAD_CAT_ID":55162,"ELEMENT_SET_NO":999,"REV_AT_EPOCH":14078,"BSTAR":0.00093276684,"MEAN_MOTION_DOT":3.43e-6,"MEAN_MOTION_DDOT":0},{"OBJECT_NAME":"ONEWEB-0622","OBJECT_ID":"2023-004Z","EPOCH":"2025-12-08T06:37:19.253856","MEAN_MOTION":13.11418397,"ECCENTRICITY":0.00010871,"INCLINATION":87.8858,"RA_OF_ASC_NODE":59.0806,"ARG_OF_PERICENTER":127.3212,"MEAN_ANOMALY":232.8015,"EPHEMERIS_TYPE":0,"CLASSIFICATION_TYPE":"U","NORAD_CAT_ID":55163,"ELEMENT_SET_NO":999,"REV_AT_EPOCH":14077,"BSTAR":0.0010026358,"MEAN_MOTION_DOT":3.68e-6,"MEAN_MOTION_DDOT":0},{"OBJECT_NAME":"ONEWEB-0623","OBJECT_ID":"2023-004AA","EPOCH":"2025-12-08T04:34:24.092832","MEAN_MOTION":13.17651768,"ECCENTRICITY":0.00016263,"INCLINATION":87.9111,"RA_OF_ASC_NODE":43.8645,"ARG_OF_PERICENTER":128.1202,"MEAN_ANOMALY":232.0077,"EPHEMERIS_TYPE":0,"CLASSIFICATION_TYPE":"U","NORAD_CAT_ID":55164,"ELEMENT_SET_NO":999,"REV_AT_EPOCH":14243,"BSTAR":1.958649e-6,"MEAN_MOTION_DOT":1.4e-7,"MEAN_MOTION_DDOT":0},{"OBJECT_NAME":"ONEWEB-0624","OBJECT_ID":"2023-004AB","EPOCH":"2025-12-08T03:19:20.200800","MEAN_MOTION":13.12920747,"ECCENTRICITY":0.00015987,"INCLINATION":87.8933,"RA_OF_ASC_NODE":28.5762,"ARG_OF_PERICENTER":108.209,"MEAN_ANOMALY":251.9213,"EPHEMERIS_TYPE":0,"CLASSIFICATION_TYPE":"U","NORAD_CAT_ID":55165,"ELEMENT_SET_NO":999,"REV_AT_EPOCH":14300,"BSTAR":0.00047053176,"MEAN_MOTION_DOT":1.83e-6,"MEAN_MOTION_DDOT":0}]
