ONEWEB-0570             
1 55149U 23004K   25342.14636796  .00000064  00000+0  12972-3 0  9994
2 55149  87.9170  13.4289 0001292 102.8231 257.3045 13.18688336144514
ONEWEB-0571             
1 55150U 23004L   25342.13977223  .00000074  00000+0  15396-3 0  9992
2 55150  87.9167  13.4298 0001511  51.4866 308.6401 13.18688438144529
ONEWEB-0572             
1 55151U 23004M   25342.23612492  .00000116  00000+0  26605-3 0  9990
2 55151  87.9120  43.8385 0001564  96.2773 263.8537 13.17649700142332
ONEWEB-0573             
1 55152U 23004N   25342.13316876  .00001017  00000+0  25454-2 0  9998
2 55152  87.9160  13.4367 0001151  79.5631 280.5631 13.18694879144510
ONEWEB-0588             
1 55153U 23004P   25342.12659178  .00000091  00000+0  19746-3 0  9992
2 55153  87.9174  13.4325 0001341  96.4020 263.7265 13.18686170144512
ONEWEB-0598             
1 55154U 23004Q   25342.26572728  .00000067  00000+0  15239-3 0  9999
2 55154  87.8857  59.0950 0001602  81.1870 278.9440 13.11420955140872
ONEWEB-0599             
1 55155U 23004R   25342.19731022  .00000080  00000+0  17356-3 0  9993
2 55155  87.9110  43.8477 0001850  94.2055 265.9288 13.17649812142336
ONEWEB-0614             
1 55156U 23004S   25342.26064518 -.00000185  00000+0 -55748-3 0  9996
2 55156  87.8857  59.1054 0001521 114.8763 245.2524 13.11420215140818
ONEWEB-0616             
1 55157U 23004T   25342.23949561  .00000115  00000+0  26220-3 0  9998
2 55157  87.9122  43.8308 0002683  92.5890 267.5549 13.17649958142550
ONEWEB-0617             
1 55158U 23004U   25342.24877053 -.00000687  00000+0 -19740-2 0  9990
2 55158  87.8858  59.0872 0001329 109.6442 250.4829 13.11416717140830
ONEWEB-0618             
1 55159U 23004V   25342.25751586  .00010804  00000+0  65190-3 0  9995
2 55159  86.9081 255.0471 0010577 288.3165  71.6922 15.10576546153417
ONEWEB-0619             
1 55160U 23004W   25342.19562645  .00000082  00000+0  17851-3 0  9994
2 55160  87.9122  43.8136 0002080 111.4347 248.7007 13.17649942142443
ONEWEB-0620             
1 55161U 23004X   25342.24369954 -.00001537  00000+0 -43749-2 0  9991
2 55161  87.8856  59.1080 0001430  99.2052 260.9238 13.11407341140808
ONEWEB-0621             
1 55162U 23004Y   25342.27081258  .00000343  00000+0  93277-3 0  9997
2 55162  87.8868  59.0723 0001715 110.6529 249.4783 13.11421306140789
ONEWEB-0622             
1 55163U 23004Z   25342.27591729  .00000368  00000+0  10026-2 0  9994
2 55163  87.8858  59.0806 0001087 127.3212 232.8015 13.11418397140776
ONEWEB-0623             
1 55164U 23004AA  25342.19055663  .00000014  00000+0  19586-5 0  9999
2 55164  87.9111  43.8645 0001626 128.1202 232.0077 13.17651768142431
ONEWEB-0624             
1 55165U 23004AB  25342.13842825  .00000183  00000+0  47053-3 0  9993
2 55165  87.8933  28.5762 0001598 108.2090 251.9213 13.12920747143002
